[{"OBJECT_NAME":"STARLINK-34265","OBJECT_ID":"2025-113Y","EPOCH":"2026-03-09T07:09:01.362816","MEAN_MOTION":15.30167557,"ECCENTRICITY":0.00013724,"INCLINATION":53.1593,"RA_OF_ASC_NODE":93.0568,"ARG_OF_PERICENTER":91.8934,"MEAN_ANOMALY":268.2224,"EPHEMERIS_TYPE":0,"CLASSIFICATION_TYPE":"U","NORAD_CAT_ID":64192,"ELEMENT_SET_NO":999,"REV_AT_EPOCH":4496,"BSTAR":0.00043840183,"MEAN_MOTION_DOT":0.00012634,"MEAN_MOTION_DDOT":0},{"OBJECT_NAME":"OBJECT N","OBJECT_ID":"2019-093N","EPOCH":"2026-03-09T21:41:56.087232","MEAN_MOTION":15.29897693,"ECCENTRICITY":0.0006278,"INCLINATION":98.0505,"RA_OF_ASC_NODE":226.9456,"ARG_OF_PERICENTER":33.3806,"MEAN_ANOMALY":326.7828,"EPHEMERIS_TYPE":0,"CLASSIFICATION_TYPE":"U","NORAD_CAT_ID":44891,"ELEMENT_SET_NO":999,"REV_AT_EPOCH":33957,"BSTAR":0.0010567776,"MEAN_MOTION_DOT":0.00030617,"MEAN_MOTION_DDOT":0}]
